[{"OBJECT_NAME":"STARLINK-3327","OBJECT_ID":"2022-001S","EPOCH":"2024-01-25T06:57:40.285440","MEAN_MOTION":15.08847103,"ECCENTRICITY":0.0001897,"INCLINATION":53.2192,"RA_OF_ASC_NODE":45.5425,"ARG_OF_PERICENTER":112.6081,"MEAN_ANOMALY":247.5112,"EPHEMERIS_TYPE":0,"CLASSIFICATION_TYPE":"U","NORAD_CAT_ID":50819,"ELEMENT_SET_NO":999,"REV_AT_EPOCH":11350,"BSTAR":0.00014761,"MEAN_MOTION_DOT":2.062e-5,"MEAN_MOTION_DDOT":0},{"OBJECT_NAME":"STARLINK-3339","OBJECT_ID":"2022-001T","EPOCH":"2024-01-25T08:06:33.648480","MEAN_MOTION":15.08839661,"ECCENTRICITY":0.0002041,"INCLINATION":53.2185,"RA_OF_ASC_NODE":45.3219,"ARG_OF_PERICENTER":115.2616,"MEAN_ANOMALY":244.8588,"EPHEMERIS_TYPE":0,"CLASSIFICATION_TYPE":"U","NORAD_CAT_ID":50820,"ELEMENT_SET_NO":999,"REV_AT_EPOCH":11350,"BSTAR":4.2399e-5,"MEAN_MOTION_DOT":3.87e-6,"MEAN_MOTION_DDOT":0},{"OBJECT_NAME":"STARLINK-3346","OBJECT_ID":"2022-001U","EPOCH":"2024-01-25T07:29:26.590848","MEAN_MOTION":15.08858618,"ECCENTRICITY":0.0001838,"INCLINATION":53.2178,"RA_OF_ASC_NODE":45.3187,"ARG_OF_PERICENTER":71.6559,"MEAN_ANOMALY":288.4633,"EPHEMERIS_TYPE":0,"CLASSIFICATION_TYPE":"U","NORAD_CAT_ID":50821,"ELEMENT_SET_NO":999,"REV_AT_EPOCH":11350,"BSTAR":0.0006669,"MEAN_MOTION_DOT":0.00010347,"MEAN_MOTION_DDOT":0},{"OBJECT_NAME":"STARLINK-3343","OBJECT_ID":"2022-001V","EPOCH":"2024-01-25T07:55:57.483552","MEAN_MOTION":15.0884312,"ECCENTRICITY":0.0001683,"INCLINATION":53.2176,"RA_OF_ASC_NODE":45.3547,"ARG_OF_PERICENTER":120.7744,"MEAN_ANOMALY":239.3414,"EPHEMERIS_TYPE":0,"CLASSIFICATION_TYPE":"U","NORAD_CAT_ID":50822,"ELEMENT_SET_NO":999,"REV_AT_EPOCH":11350,"BSTAR":9.1978e-5,"MEAN_MOTION_DOT":1.176e-5,"MEAN_MOTION_DDOT":0},{"OBJECT_NAME":"STARLINK-3334","OBJECT_ID":"2022-001W","EPOCH":"2024-01-25T08:43:40.490976","MEAN_MOTION":15.08800701,"ECCENTRICITY":0.0001892,"INCLINATION":53.2177,"RA_OF_ASC_NODE":45.2031,"ARG_OF_PERICENTER":97.2318,"MEAN_ANOMALY":262.8889,"EPHEMERIS_TYPE":0,"CLASSIFICATION_TYPE":"U","NORAD_CAT_ID":50823,"ELEMENT_SET_NO":999,"REV_AT_EPOCH":11351,"BSTAR":0.00067167,"MEAN_MOTION_DOT":0.00010406,"MEAN_MOTION_DDOT":0},{"OBJECT_NAME":"STARLINK-3340","OBJECT_ID":"2022-001X","EPOCH":"2024-01-25T07:50:39.567840","MEAN_MOTION":15.08847385,"ECCENTRICITY":0.0001629,"INCLINATION":53.2199,"RA_OF_ASC_NODE":45.3714,"ARG_OF_PERICENTER":68.427,"MEAN_ANOMALY":291.6896,"EPHEMERIS_TYPE":0,"CLASSIFICATION_TYPE":"U","NORAD_CAT_ID":50824,"ELEMENT_SET_NO":999,"REV_AT_EPOCH":11350,"BSTAR":0.00010482,"MEAN_MOTION_DOT":1.381e-5,"MEAN_MOTION_DDOT":0},{"OBJECT_NAME":"STARLINK-3332","OBJECT_ID":"2022-001Y","EPOCH":"2024-01-25T06:25:53.472864","MEAN_MOTION":15.08842151,"ECCENTRICITY":0.0002391,"INCLINATION":53.2174,"RA_OF_ASC_NODE":45.6289,"ARG_OF_PERICENTER":126.8387,"MEAN_ANOMALY":233.2825,"EPHEMERIS_TYPE":0,"CLASSIFICATION_TYPE":"U","NORAD_CAT_ID":50825,"ELEMENT_SET_NO":999,"REV_AT_EPOCH":11349,"BSTAR":9.6275e-5,"MEAN_MOTION_DOT":1.244e-5,"MEAN_MOTION_DDOT":0},{"OBJECT_NAME":"STARLINK-3337","OBJECT_ID":"2022-001Z","EPOCH":"2024-01-25T05:57:59.300064","MEAN_MOTION":15.15642106,"ECCENTRICITY":0.0002835,"INCLINATION":53.2145,"RA_OF_ASC_NODE":43.6664,"ARG_OF_PERICENTER":37.4816,"MEAN_ANOMALY":322.6376,"EPHEMERIS_TYPE":0,"CLASSIFICATION_TYPE":"U","NORAD_CAT_ID":50826,"ELEMENT_SET_NO":999,"REV_AT_EPOCH":11352,"BSTAR":0.0023627,"MEAN_MOTION_DOT":0.00045437,"MEAN_MOTION_DDOT":0},{"OBJECT_NAME":"STARLINK-3329","OBJECT_ID":"2022-001AA","EPOCH":"2024-01-25T08:17:10.085568","MEAN_MOTION":15.08834794,"ECCENTRICITY":0.0002384,"INCLINATION":53.218,"RA_OF_ASC_NODE":45.2933,"ARG_OF_PERICENTER":114.7766,"MEAN_ANOMALY":245.3474,"EPHEMERIS_TYPE":0,"CLASSIFICATION_TYPE":"U","NORAD_CAT_ID":50827,"ELEMENT_SET_NO":999,"REV_AT_EPOCH":11350,"BSTAR":0.00057177,"MEAN_MOTION_DOT":8.822e-5,"MEAN_MOTION_DDOT":0},{"OBJECT_NAME":"STARLINK-3290","OBJECT_ID":"2022-001AB","EPOCH":"2024-01-25T07:57:19.295712","MEAN_MOTION":15.08842864,"ECCENTRICITY":0.00018,"INCLINATION":53.2173,"RA_OF_ASC_NODE":45.2403,"ARG_OF_PERICENTER":107.5054,"MEAN_ANOMALY":252.6135,"EPHEMERIS_TYPE":0,"CLASSIFICATION_TYPE":"U","NORAD_CAT_ID":50828,"ELEMENT_SET_NO":999,"REV_AT_EPOCH":11335,"BSTAR":7.3973e-5,"MEAN_MOTION_DOT":8.89e-6,"MEAN_MOTION_DDOT":0},{"OBJECT_NAME":"STARLINK-3294","OBJECT_ID":"2022-001AC","EPOCH":"2024-01-25T06:52:22.457856","MEAN_MOTION":15.08840384,"ECCENTRICITY":0.0001811,"INCLINATION":53.2187,"RA_OF_ASC_NODE":45.5565,"ARG_OF_PERICENTER":118.0531,"MEAN_ANOMALY":242.0645,"EPHEMERIS_TYPE":0,"CLASSIFICATION_TYPE":"U","NORAD_CAT_ID":50829,"ELEMENT_SET_NO":999,"REV_AT_EPOCH":11349,"BSTAR":-1.8405e-5,"MEAN_MOTION_DOT":-5.81e-6,"MEAN_MOTION_DDOT":0},{"OBJECT_NAME":"STARLINK-3278","OBJECT_ID":"2022-001AD","EPOCH":"2024-01-25T08:52:56.469792","MEAN_MOTION":15.08811208,"ECCENTRICITY":0.0002052,"INCLINATION":53.2185,"RA_OF_ASC_NODE":55.176,"ARG_OF_PERICENTER":105.1762,"MEAN_ANOMALY":254.9457,"EPHEMERIS_TYPE":0,"CLASSIFICATION_TYPE":"U","NORAD_CAT_ID":50830,"ELEMENT_SET_NO":999,"REV_AT_EPOCH":11337,"BSTAR":0.00057401,"MEAN_MOTION_DOT":8.852e-5,"MEAN_MOTION_DDOT":0},{"OBJECT_NAME":"STARLINK-3299","OBJECT_ID":"2022-001AE","EPOCH":"2024-01-25T07:34:46.404768","MEAN_MOTION":15.08840674,"ECCENTRICITY":0.000126,"INCLINATION":53.2175,"RA_OF_ASC_NODE":45.4908,"ARG_OF_PERICENTER":102.8102,"MEAN_ANOMALY":257.3031,"EPHEMERIS_TYPE":0,"CLASSIFICATION_TYPE":"U","NORAD_CAT_ID":50831,"ELEMENT_SET_NO":999,"REV_AT_EPOCH":11350,"BSTAR":0.00018553,"MEAN_MOTION_DOT":2.666e-5,"MEAN_MOTION_DDOT":0},{"OBJECT_NAME":"STARLINK-3328","OBJECT_ID":"2022-001AF","EPOCH":"2024-01-25T08:54:19.189152","MEAN_MOTION":15.08830823,"ECCENTRICITY":0.0002102,"INCLINATION":53.219,"RA_OF_ASC_NODE":55.2243,"ARG_OF_PERICENTER":114.9108,"MEAN_ANOMALY":245.2102,"EPHEMERIS_TYPE":0,"CLASSIFICATION_TYPE":"U","NORAD_CAT_ID":50832,"ELEMENT_SET_NO":999,"REV_AT_EPOCH":11337,"BSTAR":0.00025032,"MEAN_MOTION_DOT":3.697e-5,"MEAN_MOTION_DDOT":0},{"OBJECT_NAME":"STARLINK-3316","OBJECT_ID":"2022-001AG","EPOCH":"2024-01-25T05:34:08.469408","MEAN_MOTION":15.19216781,"ECCENTRICITY":0.0002139,"INCLINATION":53.2191,"RA_OF_ASC_NODE":26.8604,"ARG_OF_PERICENTER":180.9912,"MEAN_ANOMALY":179.1081,"EPHEMERIS_TYPE":0,"CLASSIFICATION_TYPE":"U","NORAD_CAT_ID":50833,"ELEMENT_SET_NO":999,"REV_AT_EPOCH":11376,"BSTAR":0.00015727,"MEAN_MOTION_DOT":3.034e-5,"MEAN_MOTION_DDOT":0},{"OBJECT_NAME":"STARLINK-3331","OBJECT_ID":"2022-001AH","EPOCH":"2024-01-25T08:31:43.848768","MEAN_MOTION":15.08844512,"ECCENTRICITY":0.0001514,"INCLINATION":53.2168,"RA_OF_ASC_NODE":55.2471,"ARG_OF_PERICENTER":80.1903,"MEAN_ANOMALY":279.926,"EPHEMERIS_TYPE":0,"CLASSIFICATION_TYPE":"U","NORAD_CAT_ID":50834,"ELEMENT_SET_NO":999,"REV_AT_EPOCH":11336,"BSTAR":1.7066e-5,"MEAN_MOTION_DOT":-1.6e-7,"MEAN_MOTION_DDOT":0},{"OBJECT_NAME":"STARLINK-3310","OBJECT_ID":"2022-001AJ","EPOCH":"2024-01-25T08:37:03.647136","MEAN_MOTION":15.08836384,"ECCENTRICITY":0.000175,"INCLINATION":53.2187,"RA_OF_ASC_NODE":55.3502,"ARG_OF_PERICENTER":104.1373,"MEAN_ANOMALY":255.9814,"EPHEMERIS_TYPE":0,"CLASSIFICATION_TYPE":"U","NORAD_CAT_ID":50835,"ELEMENT_SET_NO":999,"REV_AT_EPOCH":11336,"BSTAR":6.9722e-5,"MEAN_MOTION_DOT":8.22e-6,"MEAN_MOTION_DDOT":0}]
