STARLINK-3327           
1 50819U 22001S   24025.29004960  .00002062  00000+0  14761-3 0  9992
2 50819  53.2192  45.5425 0001897 112.6081 247.5112 15.08847103113505
STARLINK-3339           
1 50820U 22001T   24025.33788945  .00000387  00000+0  42399-4 0  9998
2 50820  53.2185  45.3219 0002041 115.2616 244.8588 15.08839661113500
STARLINK-3346           
1 50821U 22001U   24025.31211332  .00010347  00000+0  66690-3 0  9994
2 50821  53.2178  45.3187 0001838  71.6559 288.4633 15.08858618113509
STARLINK-3343           
1 50822U 22001V   24025.33052643  .00001176  00000+0  91978-4 0  9993
2 50822  53.2176  45.3547 0001683 120.7744 239.3414 15.08843120113502
STARLINK-3334           
1 50823U 22001W   24025.36366309  .00010406  00000+0  67167-3 0  9992
2 50823  53.2177  45.2031 0001892  97.2318 262.8889 15.08800701113514
STARLINK-3340           
1 50824U 22001X   24025.32684685  .00001381  00000+0  10482-3 0  9999
2 50824  53.2199  45.3714 0001629  68.4270 291.6896 15.08847385113509
STARLINK-3332           
1 50825U 22001Y   24025.26798001  .00001244  00000+0  96275-4 0  9994
2 50825  53.2174  45.6289 0002391 126.8387 233.2825 15.08842151113496
STARLINK-3337           
1 50826U 22001Z   24025.24860301  .00045437  00000+0  23627-2 0  9997
2 50826  53.2145  43.6664 0002835  37.4816 322.6376 15.15642106113521
STARLINK-3329           
1 50827U 22001AA  24025.34525562  .00008822  00000+0  57177-3 0  9991
2 50827  53.2180  45.2933 0002384 114.7766 245.3474 15.08834794113506
STARLINK-3290           
1 50828U 22001AB  24025.33147333  .00000889  00000+0  73973-4 0  9995
2 50828  53.2173  45.2403 0001800 107.5054 252.6135 15.08842864113358
STARLINK-3294           
1 50829U 22001AC  24025.28637104 -.00000581  00000+0 -18405-4 0  9990
2 50829  53.2187  45.5565 0001811 118.0531 242.0645 15.08840384113494
STARLINK-3278           
1 50830U 22001AD  24025.37009803  .00008852  00000+0  57401-3 0  9996
2 50830  53.2185  55.1760 0002052 105.1762 254.9457 15.08811208113372
STARLINK-3299           
1 50831U 22001AE  24025.31581487  .00002666  00000+0  18553-3 0  9996
2 50831  53.2175  45.4908 0001260 102.8102 257.3031 15.08840674113509
STARLINK-3328           
1 50832U 22001AF  24025.37105543  .00003697  00000+0  25032-3 0  9993
2 50832  53.2190  55.2243 0002102 114.9108 245.2102 15.08830823113379
STARLINK-3316           
1 50833U 22001AG  24025.23204247  .00003034  00000+0  15727-3 0  9995
2 50833  53.2191  26.8604 0002139 180.9912 179.1081 15.19216781113769
STARLINK-3331           
1 50834U 22001AH  24025.35536862 -.00000016  00000+0  17066-4 0  9997
2 50834  53.2168  55.2471 0001514  80.1903 279.9260 15.08844512113360
STARLINK-3310           
1 50835U 22001AJ  24025.35906999  .00000822  00000+0  69722-4 0  9990
2 50835  53.2187  55.3502 0001750 104.1373 255.9814 15.08836384113365
